INTELSAT 26 (IS-26)     
1 24732U 97007A   20116.87864998  .00000011  00000-0  00000+0 0  9991
2 24732   8.9687  43.2903 0007879   9.3057 181.6990  1.00273912 84780
GALAXY 25 (G-25)        
1 24812U 97026A   20118.16229851  .00000161  00000-0  00000+0 0  9994
2 24812   1.8041  90.8030 0002724 311.7667 264.3205  1.00273202 83885
INTELSAT 5 (IS-5)       
1 24916U 97046A   20117.59756972  .00000097  00000-0  00000-0 0  9995
2 24916   5.6069  65.8412 0003625 353.9613 233.3803  1.00274545 83137
INTELSAT 805 (IS-805)   
1 25371U 98037A   20117.76960543  .00000093  00000-0  00000-0 0  9998
2 25371   2.3345  88.1224 0007901 100.4516 155.1160  0.99476683 80050
GALAXY 11 (G-11)        
1 26038U 99071A   20117.63706831 -.00000156  00000-0  00000-0 0  9993
2 26038   1.0820  97.0581 0000793 196.7511  57.5438  1.00271910 74599
INTELSAT 9 (IS-9)       
1 26451U 00043A   20117.78923351 -.00000280  00000-0  00000+0 0  9994
2 26451   5.5954  66.0396 0002473 325.4370  57.9030  1.00270922 72363
INTELSAT 12 (IS-12)     
1 26590U 00068A   20117.74024587  .00000018  00000-0  00000-0 0  9993
2 26590   2.8114  86.6152 0005318 337.3683 121.9350  1.00273290 29239
INTELSAT 1R (IS-1R)     
1 26608U 00072A   20118.33519958 -.00000133  00000-0  00000+0 0  9993
2 26608   2.6198  86.5052 0000132  29.4654  17.5649  1.00271387 71179
INTELSAT 10 (IS-10)     
1 26766U 01019A   20117.66507103  .00000130  00000-0  00000+0 0  9990
2 26766   3.7751  79.2937 0002168 331.1746  91.5737  1.00274065 69441
INTELSAT 901 (IS-901)   
1 26824U 01024A   20117.78256852 -.00000197  00000-0  00000-0 0  9991
2 26824   0.0667  63.1252 0001962  84.0310 322.3209  1.00272478 69104
INTELSAT 902 (IS-902)   
1 26900U 01039A   20117.71739007 -.00000276  00000-0  00000-0 0  9991
2 26900   0.4972  97.0772 0007369 248.9213  77.1104  1.00297519 68229
DIRECTV 4S              
1 26985U 01052A   20117.80083588 -.00000101  00000-0  00000-0 0  9992
2 26985   0.5824  95.1727 0005764 308.6363 107.7865  0.99266517 28811
INTELSAT 904 (IS-904)   
1 27380U 02007A   20117.64971753 -.00000207  00000-0  00000-0 0  9992
2 27380   1.3359  93.7454 0002610 302.4504  23.3116  1.00272326 29271
INTELSAT 903 (IS-903)   
1 27403U 02016A   20117.78958245 -.00000202  00000-0  00000-0 0  9999
2 27403   2.1196  88.6632 0002179 280.4783  82.1137  0.99016992 23193
DIRECTV 5 (TEMPO 1)     
1 27426U 02023A   20117.25541663 -.00000050  00000-0  00000-0 0  9997
2 27426   0.0124 258.9412 0003687 147.3696 150.2262  1.00269921 65842
INTELSAT 905 (IS-905)   
1 27438U 02027A   20117.65076435 -.00000178  00000-0  00000-0 0  9999
2 27438   1.1560  94.6642 0002694 287.2306  43.0005  1.00273073 28880
GALAXY 3C (G-3C)        
1 27445U 02030A   20117.56492421 -.00000145  00000-0  00000-0 0  9992
2 27445   0.0171 292.9118 0001975  30.9187 359.5061  1.00270835 24017
INTELSAT 906 (IS-906)   
1 27513U 02041A   20117.66847323  .00000020  00000-0  00000-0 0  9997
2 27513   0.1618 101.9840 0002262 305.3796 112.5439  1.00272776 64540
INTELSAT 907 (IS-907)   
1 27683U 03007A   20118.35637050 -.00000198  00000-0  00000+0 0  9995
2 27683   0.1072  89.9745 0002610 316.4310 270.1739  1.00267943 62905
GALAXY 12 (G-12)        
1 27715U 03013B   20118.34333973  .00000063  00000-0  00000+0 0  9994
2 27715   1.3737  92.9553 0001772 297.5675 179.8615  1.00272532 62520
GALAXY 23 (G-23)        
1 27854U 03034A   20118.39327333  .00000018  00000-0  00000+0 0  9999
2 27854   0.0225 260.3326 0003152 147.6034 188.4833  1.00270912 66060
GALAXY 13 (HORIZONS 1)  
1 27954U 03044A   20118.01577182  .00000053  00000-0  00000+0 0  9998
2 27954   0.0258 112.6977 0001022 291.9532  49.4591  1.00271805 60678
DIRECTV 7S              
1 28238U 04016A   20117.70362932  .00000007  00000-0  00000-0 0  9994
2 28238   0.0050 187.8395 0002999 211.5919 309.9663  1.00271771 58575
INTELSAT 10-02          
1 28358U 04022A   20117.79900392 -.00000006  00000-0  00000-0 0  9991
2 28358   0.0145 250.3762 0002883 166.6045  84.9173  1.00270591 58170
XM-3 (RHYTHM)           
1 28626U 05008A   20117.98931517 -.00000200  00000-0  00000+0 0  9993
2 28626   0.0164  67.8199 0000532 273.5094 145.1570  1.00269501 55587
SPACEWAY 1              
1 28644U 05015A   20118.23941385  .00000011  00000-0  00000+0 0  9993
2 28644   0.9918  93.9851 0002745 352.7484 263.1924  0.98489022 55019
DIRECTV 8               
1 28659U 05019A   20117.62342196 -.00000110  00000-0  00000-0 0  9992
2 28659   0.0047 210.0033 0002922 180.3090 308.4483  1.00271670 54652
GALAXY 28 (G-28)        
1 28702U 05022A   20117.85674372 -.00000180  00000-0  00000+0 0  9990
2 28702   0.0164 145.7428 0002648 245.2548  43.7174  1.00272244 54347
GALAXY 14 (G-14)        
1 28790U 05030A   20118.01577182  .00000042  00000-0  00000+0 0  9992
2 28790   0.0599  79.1372 0002371 315.1789  61.8287  1.00272250 53826
GALAXY 15 (G-15)        
1 28884U 05041A   20117.70092500  .00000084  00000-0  00000+0 0  9995
2 28884   0.0285 115.5090 0001769 279.3732 299.5819  1.00271247 53144
SPACEWAY 2              
1 28903U 05046B   20117.71304140  .00000109  00000-0  00000-0 0  9998
2 28903   0.0920  82.3712 0000205 214.1605  36.4383  1.00272856 28855
GALAXY 16 (G-16)        
1 29236U 06023A   20118.49224399 -.00000123  00000-0  00000+0 0  9993
2 29236   0.0158 257.3196 0002634 137.6712 259.1474  1.00272417 50789
DIRECTV 9S              
1 29494U 06043A   20117.95813194 -.00000108  00000-0  00000+0 0  9991
2 29494   0.0173 183.7070 0002819 208.9649  66.4602  1.00272036 49621
XM-4 (BLUES)            
1 29520U 06049A   20118.48142199 -.00000019  00000-0  00000+0 0  9997
2 29520   0.0075  10.7014 0000121 330.2242 293.0506  1.00272697 49513
GALAXY 17 (G-17)        
1 31307U 07016B   20117.86230075 -.00000169  00000-0  00000-0 0  9997
2 31307   0.0143  56.8622 0003451 351.1735  26.7252  1.00271817 47463
DIRECTV 10              
1 31862U 07032A   20117.86785483 -.00000098  00000-0  00000-0 0  9990
2 31862   0.0067  41.4231 0000293 206.8792 176.7096  1.00271425 23124
SPACEWAY 3              
1 32018U 07036A   20117.56492421 -.00000146  00000-0  00000+0 0  9995
2 32018   0.0030   0.1890 0000257 349.4540 333.8127  1.00272370 46638
INTELSAT 11 (IS-11)     
1 32253U 07044B   20117.79062928 -.00000263  00000-0  00000-0 0  9996
2 32253   0.0106 233.7588 0001863 194.3666  28.7724  1.00272270 46127
HORIZONS 2              
1 32388U 07063B   20117.78254766 -.00000177  00000-0  00000-0 0  9992
2 32388   0.0168 281.9406 0003005 109.3871 190.4778  1.00271247 45399
DIRECTV 11              
1 32729U 08013A   20117.62446543 -.00000120  00000-0  00000-0 0  9994
2 32729   0.0059  50.5776 0000074 295.5834 354.5509  1.00272775 23104
GALAXY 18 (G-18)        
1 32951U 08024A   20118.01577182  .00000030  00000-0  00000+0 0  9999
2 32951   0.0143 265.8721 0003025 137.6203  54.6402  1.00271611 43606
INTELSAT 25 (IS-25)     
1 33153U 08034A   20117.79289741 -.00000218  00000-0  00000-0 0  9990
2 33153   0.0217 253.1504 0001856  84.6833 131.3525  1.00272762 43250
GALAXY 19 (G-19)        
1 33376U 08045A   20117.62606764 -.00000134  00000-0  00000-0 0  9996
2 33376   0.0103 236.6780 0002911 160.2233 306.5809  1.00272961 42454
SIRIUS FM-5             
1 35493U 09034A   20117.85674372 -.00000195  00000-0  00000-0 0  9999
2 35493   0.0210 289.2799 0001056  79.3723  68.9483  1.00273089 24215
INTELSAT 14 (IS-14)     
1 36097U 09064A   20117.79019310 -.00000268  00000-0  00000-0 0  9992
2 36097   0.0152 196.1914 0002375 202.0453  56.4959  1.00272061 38210
INTELSAT 15 (IS-15)     
1 36106U 09067A   20117.59216144 -.00000180  00000-0  00000-0 0  9991
2 36106   0.0177 274.7146 0002226 131.0760 107.5953  1.00271041 38113
DIRECTV 12              
1 36131U 09075A   20118.42353501 -.00000099  00000-0  00000+0 0  9998
2 36131   0.0103 236.1605 0000163  67.2910 322.1074  1.00271815 37901
INTELSAT 16 (IS-16)     
1 36397U 10006A   20117.78399935 -.00000240  00000-0  00000+0 0  9995
2 36397   0.0185 267.7158 0001951 144.6407   8.9291  1.00271377 37256
XM-5                    
1 37185U 10053A   20118.30625845 -.00000201  00000-0  00000+0 0  9991
2 37185   0.0153 266.8155 0002115 124.9373 209.0494  1.00272732 34960
INTELSAT 17 (IS-17)     
1 37238U 10065B   20118.08508619  .00000003  00000-0  00000+0 0  9996
2 37238   0.0203 248.1287 0002555 150.6864 273.3279  1.00271697 34439
INTELSAT NEW DAWN       
1 37392U 11016A   20117.79702435  .00000161  00000-0  00000+0 0  9998
2 37392   0.0344 134.0073 0001183 208.6261 192.3651  1.00265387 33031
INTELSAT 18 (IS-18)     
1 37834U 11056A   20118.38776331  .00000057  00000-0  00000+0 0  9999
2 37834   0.0117 252.4404 0003171 165.1062 117.8864  1.00272004 31375
INTELSAT 22 (IS-22)     
1 38098U 12011A   20117.85327150 -.00000054  00000-0  00000-0 0  9995
2 38098   0.0049 251.9071 0002512 154.0597 188.6074  1.00272114 29349
INTELSAT 19 (IS-19)     
1 38356U 12030A   20117.82022420 -.00000052  00000-0  00000-0 0  9990
2 38356   0.0143 260.0668 0003179 146.4450 270.0379  1.00270212 27975
INTELSAT 20 (IS-20)     
1 38740U 12043A   20117.80744007 -.00000019  00000-0  00000-0 0  9994
2 38740   0.0202 155.0892 0001835  31.1713  28.1635  1.00270584 28261
INTELSAT 21 (IS-21)     
1 38749U 12045A   20117.78766326 -.00000279  00000-0  00000-0 0  9998
2 38749   0.0367  96.3024 0002048 297.7796  46.7357  1.00272618 28058
INTELSAT 23 (IS-23)     
1 38867U 12057A   20117.78862286 -.00000279  00000-0  00000-0 0  9994
2 38867   0.0183 245.1526 0001796 135.0459  65.9483  1.00274193 27518
SIRIUS FM-6             
1 39360U 13058A   20117.87341208 -.00000011  00000-0  00000-0 0  9995
2 39360   0.0262 279.5647 0000906 344.6489 149.3823  1.00269489 23673
INTELSAT 30 (IS-30)     
1 40271U 14062A   20118.20350341 -.00000149  00000-0  00000+0 0  9991
2 40271   0.0167 263.0583 0001318 125.0951 165.7217  1.00294396 20288
INTELSAT 34 (IS-34)     
1 40874U 15039A   20118.22396278 -.00000281  00000-0  00000+0 0  9993
2 40874   0.0172 265.0735 0000922  11.9783 323.7601  1.00272289 17196
INTELSAT 31 (IS-31)     
1 41581U 16035A   20117.56492421 -.00000145  00000-0  00000+0 0  9998
2 41581   0.0160 246.7291 0002607 328.4682 108.1456  1.00270980 14206
INTELSAT 36 (IS-36)     
1 41747U 16053A   20117.75535444 -.00000019  00000-0  00000-0 0  9997
2 41747   0.0128 314.5372 0001244  23.7045 217.3769  1.00270804 13486
INTELSAT 33E (IS-33E)   
1 41748U 16053B   20117.78342432  .00000054  00000-0  00000-0 0  9992
2 41748   0.0380  11.7491 0001846  50.4643 135.0546  1.00271742 13766
INTELSAT 32E (IS-32E)   
1 41945U 17007B   20117.99355147 -.00000264  00000-0  00000+0 0  9994
2 41945   0.0138 259.3770 0000675  45.9313 224.6374  1.00270571 11769
INTELSAT 35E (IS-35E)   
1 42818U 17041A   20118.08452122 -.00000233  00000-0  00000+0 0  9990
2 42818   0.0237 228.8466 0002285 169.4530 173.1557  1.00270543 10358
INTELSAT 37E (IS-37E)   
1 42950U 17059A   20118.13243656 -.00000136  00000-0  00000+0 0  9994
2 42950   0.0123 248.1390 0002408 152.3623 204.7553  1.00269792  9563
AZERSPACE 2 (IS-38)     
1 43632U 18074A   20117.95697667  .00000142  00000-0  00000+0 0  9990
2 43632   0.0148 252.4991 0001265 141.1529 211.3788  1.00269861  6012
HORIZONS 3E             
1 43633U 18074B   20117.91646556 -.00000026  00000-0  00000+0 0  9990
2 43633   0.0207  34.5199 0000343 256.1309  63.6419  1.00271593  5852
INTELSAT 39 (IS-39)     
1 44476U 19049B   20117.76229986  .00000038  00000-0  00000-0 0  9999
2 44476   0.0139 268.7812 0000569  14.6656 268.1466  1.00271225  2704
